NORAD_CAT_ID,OBJECT_NAME,OBJECT_TYPE,EPOCH,MEAN_MOTION,ECCENTRICITY,INCLINATION,RA_OF_ASC_NODE,ARG_OF_PERICENTER,MEAN_ANOMALY,BSTAR,MEAN_MOTION_DOT,MEAN_MOTION_DDOT,TLE_LINE0,TLE_LINE1,TLE_LINE2,SEMIMAJOR_AXIS,PERIOD,APOGEE,PERIGEE,DECAYED
52861.0,STARLINK-4112,PAYLOAD,2024-03-21 22:46:16,15.08843189,0.0001353,53.2183,6.1931,92.4836,267.6311,0.00010497,1.383e-05,0.0,0 STARLINK-4112,1 52861U 22062AH  24081.94880550  .00001383  00000-0  10497-3 0  9997,2 52861  53.2183   6.1931 0001353  92.4836 267.6311 15.08843189 97571,6917.871,95.437,540.672,538.8,0.0
52861.0,STARLINK-4112,PAYLOAD,2024-03-22 01:57:02,15.08855606,0.0001511,53.2194,5.594,103.5185,256.5975,0.00045633,6.985e-05,0.0,0 STARLINK-4112,1 52861U 22062AH  24082.08127917  .00006985  00000-0  45633-3 0  9997,2 52861  53.2194   5.5940 0001511 103.5185 256.5975 15.08855606 98080,6917.833,95.437,540.743,538.652,0.0
52861.0,STARLINK-4112,PAYLOAD,2024-03-22 19:26:17,15.0884313,0.0001452,53.2185,2.3278,90.32,269.7958,0.00016561,2.349e-05,0.0,0 STARLINK-4112,1 52861U 22062AH  24082.80992634  .00002349  00000-0  16561-3 0  9991,2 52861  53.2185   2.3278 0001452  90.3200 269.7958 15.08843130 98192,6917.871,95.437,540.74,538.731,0.0
52861.0,STARLINK-4112,PAYLOAD,2024-03-22 22:37:03,15.08842337,0.0001391,53.2184,1.7331,88.853,271.2622,0.00011642,1.565e-05,0.0,0 STARLINK-4112,1 52861U 22062AH  24082.94240613  .00001565  00000-0  11642-3 0  9993,2 52861  53.2184   1.7331 0001391  88.8530 271.2622 15.08842337 97726,6917.873,95.437,540.701,538.776,0.0
52861.0,STARLINK-4112,PAYLOAD,2024-03-23 22:27:51,15.08838976,0.0001512,53.2181,357.2733,89.1408,270.9758,8.4405e-06,-1.54e-06,0.0,0 STARLINK-4112,1 52861U 22062AH  24083.93600797 -.00000154  00000-0  84405-5 0  9999,2 52861  53.2181 357.2733 0001512  89.1408 270.9758 15.08838976 97877,6917.884,95.438,540.795,538.703,0.0
52861.0,STARLINK-4112,PAYLOAD,2024-03-24 00:03:14,15.08843696,0.000187,53.2182,356.9762,64.0054,296.1131,3.3532e-05,2.46e-06,0.0,0 STARLINK-4112,1 52861U 22062AH  24084.00224718  .00000246  00000-0  33532-4 0  9998,2 52861  53.2182 356.9762 0001870  64.0054 296.1131 15.08843696 98378,6917.869,95.437,541.028,538.44,0.0
52861.0,STARLINK-4112,PAYLOAD,2024-03-24 11:10:55,15.08850646,0.0001741,53.2182,354.8931,80.4022,279.7167,0.00024606,3.631e-05,0.0,0 STARLINK-4112,1 52861U 22062AH  24084.46592367  .00003631  00000-0  24606-3 0  9998,2 52861  53.2182 354.8931 0001741  80.4022 279.7167 15.08850646 97959,6917.848,95.437,540.917,538.508,0.0
52861.0,STARLINK-4112,PAYLOAD,2024-03-24 22:18:38,15.08849853,0.0001925,53.219,352.8138,85.3087,274.8125,0.00033303,5.017e-05,0.0,0 STARLINK-4112,1 52861U 22062AH  24084.92960655  .00005017  00000-0  33303-3 0  9992,2 52861  53.2190 352.8138 0001925  85.3087 274.8125 15.08849853 98021,6917.85,95.437,541.047,538.384,0.0
52861.0,STARLINK-4112,PAYLOAD,2024-03-25 03:04:46,15.08872269,0.0001421,53.2179,351.9212,100.3362,259.7791,0.00071751,0.0001116,0.0,0 STARLINK-4112,1 52861U 22062AH  24085.12831489  .00011160  00000-0  71751-3 0  9992,2 52861  53.2179 351.9212 0001421 100.3362 259.7791 15.08872269 98541,6917.782,95.436,540.63,538.664,0.0
52861.0,STARLINK-4112,PAYLOAD,2024-03-25 11:01:43,15.08829231,0.0001296,53.2191,350.4313,114.6507,245.462,-0.00013218,-2.39e-05,0.0,0 STARLINK-4112,1 52861U 22062AH  24085.45952951 -.00002390  00000-0 -13218-3 0  9997,2 52861  53.2191 350.4313 0001296 114.6507 245.4620 15.08829231 98599,6917.913,95.438,540.675,538.882,0.0
52861.0,STARLINK-4112,PAYLOAD,2024-03-25 22:09:27,15.08804593,0.0001641,53.219,348.3501,103.3104,256.8071,-0.00043714,-7.232e-05,0.0,0 STARLINK-4112,1 52861U 22062AH  24085.92323295 -.00007232  00000-0 -43714-3 0  9996,2 52861  53.2190 348.3501 0001641 103.3104 256.8071 15.08804593 98179,6917.989,95.44,540.989,538.718,0.0
52861.0,STARLINK-4112,PAYLOAD,2024-03-25 23:44:50,15.08803888,0.0001737,53.22,348.0516,102.5776,257.5411,-0.00042624,-7.059e-05,0.0,0 STARLINK-4112,1 52861U 22062AH  24085.98947526 -.00007059  00000-0 -42624-3 0  9997,2 52861  53.2200 348.0516 0001737 102.5776 257.5411 15.08803888 98673,6917.991,95.44,541.057,538.654,0.0
52861.0,STARLINK-4112,PAYLOAD,2024-03-26 10:52:32,15.08815958,0.000172,53.221,345.9697,126.5334,233.5816,-0.00014613,-2.611e-05,0.0,0 STARLINK-4112,1 52861U 22062AH  24086.45315592 -.00002611  00000-0 -14613-3 0  9998,2 52861  53.2210 345.9697 0001720 126.5334 233.5816 15.08815958 98740,6917.954,95.439,541.009,538.629,0.0
52861.0,STARLINK-4112,PAYLOAD,2024-03-26 20:24:50,15.08843198,0.0001685,53.2191,344.1872,114.8738,245.2429,0.00030944,4.641e-05,0.0,0 STARLINK-4112,1 52861U 22062AH  24086.85058620  .00004641  00000-0  30944-3 0  9996,2 52861  53.2191 344.1872 0001685 114.8738 245.2429 15.08843198 98806,6917.871,95.437,540.901,538.57,0.0
52861.0,STARLINK-4112,PAYLOAD,2024-03-26 23:35:36,15.08845716,0.0001585,53.2195,343.5926,115.22,244.8957,0.00038206,5.799e-05,0.0,0 STARLINK-4112,1 52861U 22062AH  24086.98306521  .00005799  00000-0  38206-3 0  9990,2 52861  53.2195 343.5926 0001585 115.2200 244.8957 15.08845716 98338,6917.863,95.437,540.824,538.631,0.0
52861.0,STARLINK-4112,PAYLOAD,2024-03-27 20:15:37,15.08830842,0.0001617,53.2191,339.7272,129.846,230.2675,0.00046523,7.122e-05,0.0,0 STARLINK-4112,1 52861U 22062AH  24087.84418269  .00007122  00000-0  46523-3 0  9992,2 52861  53.2191 339.7272 0001617 129.8460 230.2675 15.08830842 98958,6917.908,95.438,540.892,538.655,0.0
52861.0,STARLINK-4112,PAYLOAD,2024-03-27 21:51:00,15.08832958,0.0001648,53.2194,339.4298,129.4729,230.6409,0.00046872,7.178e-05,0.0,0 STARLINK-4112,1 52861U 22062AH  24087.91042155  .00007178  00000-0  46872-3 0  9995,2 52861  53.2194 339.4298 0001648 129.4729 230.6409 15.08832958 98470,6917.902,95.438,540.907,538.627,0.0
52861.0,STARLINK-4112,PAYLOAD,2024-03-28 02:37:09,15.08846153,0.0001344,53.2182,338.5392,143.6241,216.4843,0.00038366,5.824e-05,0.0,0 STARLINK-4112,1 52861U 22062AH  24088.10913599  .00005824  00000-0  38366-3 0  9991,2 52861  53.2182 338.5392 0001344 143.6241 216.4843 15.08846153 98995,6917.862,95.437,540.656,538.797,0.0
52861.0,STARLINK-4112,PAYLOAD,2024-03-28 20:06:24,15.08849521,0.0001594,53.2195,335.2672,135.8483,224.2636,-2.0007e-06,-3.2e-06,0.0,0 STARLINK-4112,1 52861U 22062AH  24088.83778379 -.00000320  00000-0 -20007-5 0  9999,2 52861  53.2195 335.2672 0001594 135.8483 224.2636 15.08849521 99105,6917.851,95.437,540.819,538.614,0.0
52861.0,STARLINK-4112,PAYLOAD,2024-03-28 23:17:10,15.08848764,0.0001058,53.2185,334.6736,119.3251,240.7847,-5.8435e-06,-3.81e-06,0.0,0 STARLINK-4112,1 52861U 22062AH  24088.97026437 -.00000381  00000-0 -58435-5 0  9998,2 52861  53.2185 334.6736 0001058 119.3251 240.7847 15.08848764 98635,6917.854,95.437,540.451,538.987,0.0
52861.0,STARLINK-4112,PAYLOAD,2024-03-29 08:49:29,15.08848579,0.0001156,53.2181,332.8904,116.1959,243.9152,1.4431e-05,-5.8e-07,0.0,0 STARLINK-4112,1 52861U 22062AH  24089.36770186 -.00000058  00000-0  14431-4 0  9996,2 52861  53.2181 332.8904 0001156 116.1959 243.9152 15.08848579 98691,6917.854,95.437,540.519,538.919,0.0
52861.0,STARLINK-4112,PAYLOAD,2024-03-29 16:46:25,15.08844312,0.0001214,53.2195,331.4061,112.3358,247.7763,-5.1328e-07,-2.96e-06,0.0,0 STARLINK-4112,1 52861U 22062AH  24089.69890473 -.00000296  00000-0 -51328-6 0  9997,2 52861  53.2195 331.4061 0001214 112.3358 247.7763 15.08844312 99233,6917.867,95.437,540.572,538.892,0.0
52861.0,STARLINK-4112,PAYLOAD,2024-03-29 23:07:57,15.08848157,0.0001251,53.2197,330.2181,116.4901,243.622,4.1003e-05,3.65e-06,0.0,0 STARLINK-4112,1 52861U 22062AH  24089.96386081  .00000365  00000-0  41003-4 0  9994,2 52861  53.2197 330.2181 0001251 116.4901 243.6220 15.08848157 98788,6917.855,95.437,540.586,538.855,0.0
52861.0,STARLINK-4112,PAYLOAD,2024-03-30 08:40:16,15.08842557,9.17e-05,53.2171,328.4298,96.0056,264.1041,-5.8666e-05,-1.221e-05,0.0,0 STARLINK-4112,1 52861U 22062AH  24090.36129826 -.00001221  00000-0 -58666-4 0  9999,2 52861  53.2171 328.4298 0000917  96.0056 264.1041 15.08842557 98844,6917.873,95.437,540.372,539.103,0.0
52861.0,STARLINK-4112,PAYLOAD,2024-03-30 21:23:21,15.08839382,0.0001158,53.219,326.0545,101.8789,258.2333,7.8107e-05,9.55e-06,0.0,0 STARLINK-4112,1 52861U 22062AH  24090.89122657  .00000955  00000-0  78107-4 0  9995,2 52861  53.2190 326.0545 0001158 101.8789 258.2333 15.08839382 99414,6917.882,95.438,540.548,538.946,0.0
52861.0,STARLINK-4112,PAYLOAD,2024-03-30 22:58:45,15.08838877,0.0001012,53.2183,325.7554,96.788,263.3228,6.2291e-05,7.04e-06,0.0,0 STARLINK-4112,1 52861U 22062AH  24090.95746674  .00000704  00000-0  62291-4 0  9992,2 52861  53.2183 325.7554 0001012  96.7880 263.3228 15.08838877 98939,6917.884,95.438,540.449,539.049,0.0
52861.0,STARLINK-4112,PAYLOAD,2024-03-31 14:52:36,15.08830721,6.83e-05,53.2181,322.7806,82.1228,277.9841,0.00027517,4.093e-05,0.0,0 STARLINK-4112,1 52861U 22062AH  24091.61986484  .00004093  00000-0  27517-3 0  9997,2 52861  53.2181 322.7806 0000683  82.1228 277.9841 15.08830721 99036,6917.909,95.438,540.246,539.301,0.0
52861.0,STARLINK-4112,PAYLOAD,2024-03-31 21:14:07,15.08881041,6.05e-05,53.2185,321.5911,64.4316,295.6738,-0.00044964,-7.444e-05,0.0,0 STARLINK-4112,1 52861U 22062AH  24091.88480963 -.00007444  00000-0 -44964-3 0  9997,2 52861  53.2185 321.5911 0000605  64.4316 295.6738 15.08881041 99076,6917.755,95.435,540.038,539.201,0.0
52861.0,STARLINK-4112,PAYLOAD,2024-04-01 00:24:54,15.08848471,9.9e-05,53.2176,320.996,78.2954,281.8149,0.00011137,1.486e-05,0.0,0 STARLINK-4112,1 52861U 22062AH  24092.01729807  .00001486  00000-0  11137-3 0  9990,2 52861  53.2176 320.9960 0000990  78.2954 281.8149 15.08848471 99580,6917.854,95.437,540.404,539.035,0.0
52861.0,STARLINK-4112,PAYLOAD,2024-04-01 08:21:50,15.08847585,8.99e-05,53.2178,319.5092,85.4127,274.6968,2.645e-05,1.33e-06,0.0,0 STARLINK-4112,1 52861U 22062AH  24092.34849886  .00000133  00000-0  26450-4 0  9999,2 52861  53.2178 319.5092 0000899  85.4127 274.6968 15.08847585 99148,6917.857,95.437,540.344,539.1,0.0
